*******************************************************************************
Ephemeris / WWW_USER Tue Mar 27 22:20:04 2018 Pasadena, USA      / Horizons    
*******************************************************************************
Target body name: Moon (301)                      {source: DE431mx}
Center body name: Solar System Barycenter (0)     {source: DE431mx}
Center-site name: BODY CENTER
*******************************************************************************
Start time      : A.D. 2018-Feb-08 00:00:00.0000 TDB
Stop  time      : A.D. 2028-Feb-08 00:00:00.0000 TDB
Step-size       : 7200 minutes
*******************************************************************************
Center geodetic : 0.00000000,0.00000000,0.0000000 {E-lon(deg),Lat(deg),Alt(km)}
Center cylindric: 0.00000000,0.00000000,0.0000000 {E-lon(deg),Dxy(km),Dz(km)}
Center radii    : (undefined)                                                  
Output units    : AU-D                                                         
Output type     : GEOMETRIC cartesian states
Output format   : 2 (position and velocity)
Reference frame : ICRF/J2000.0                                                 
Coordinate systm: Ecliptic and Mean Equinox of Reference Epoch                 
*******************************************************************************
JDTDB
   X     Y     Z
   VX    VY    VZ
*******************************************************************************
$$SOE
2460467.500000000 = A.D. 2024-Jun-06 00:00:00.0000 TDB 
  -2.610293203370137E-01 -9.838376869487423E-01  4.361975273914628E-04
   1.582800807305689E-02 -4.153240849452535E-03  3.193398867500143E-05
2460472.500000000 = A.D. 2024-Jun-11 00:00:00.0000 TDB 
  -1.810574194662565E-01 -1.002730729683572E+00  4.532134843486087E-04
   1.626048488606660E-02 -3.363136197535390E-03 -2.428090179449733E-05
2460477.500000000 = A.D. 2024-Jun-16 00:00:00.0000 TDB 
  -9.788399949436127E-02 -1.016637421008064E+00  2.492215956353102E-04
   1.701402598775233E-02 -2.097141901123361E-03 -4.898495052152373E-05
2460482.500000000 = A.D. 2024-Jun-21 00:00:00.0000 TDB 
  -1.134710139604602E-02 -1.022691280342298E+00  5.527877031796440E-05
   1.750700188663371E-02 -2.386869218295920E-04 -1.976900623652292E-05
2460487.500000000 = A.D. 2024-Jun-26 00:00:00.0000 TDB 
   7.582347784459273E-02 -1.018681823199542E+00  1.026360490754697E-04
   1.721068088782215E-02  1.800510532991153E-03  3.743679163484222E-05
2460492.500000000 = A.D. 2024-Jul-01 00:00:00.0000 TDB 
   1.597732067937417E-01 -1.005809487857155E+00  3.465859507530490E-04
   1.635419795503527E-02  3.204114043827045E-03  4.763281522027049E-05
2460497.500000000 = A.D. 2024-Jul-06 00:00:00.0000 TDB 
   2.399979429442878E-01 -9.877101789742688E-01  4.739245599117874E-04
   1.584382393204612E-02  3.996931602367064E-03 -1.884640054654018E-06
2460502.500000000 = A.D. 2024-Jul-11 00:00:00.0000 TDB 
   3.191475856384499E-01 -9.655263433887322E-01  3.409100324384029E-04
   1.586920617720899E-02  4.955997188002128E-03 -4.499939418904275E-05
2460507.500000000 = A.D. 2024-Jul-16 00:00:00.0000 TDB 
   3.987227730316247E-01 -9.372183208255331E-01  1.084224024731074E-04
   1.591643936031242E-02  6.459687520921562E-03 -3.877256948277181E-05
2460512.500000000 = A.D. 2024-Jul-21 00:00:00.0000 TDB 
   4.773838925738719E-01 -9.002148566952569E-01  3.457155812651075E-05
   1.540901616041449E-02  8.369142721650593E-03  1.418242936895676E-05
2460517.500000000 = A.D. 2024-Jul-26 00:00:00.0000 TDB 
   5.513631445041660E-01 -8.540768285537463E-01  2.279397957238876E-04
   1.408481273494918E-02  9.950329527821562E-03  5.315815208691114E-05
2460522.500000000 = A.D. 2024-Jul-31 00:00:00.0000 TDB 
   6.182094691828423E-01 -8.022057348986782E-01  4.411021502400130E-04
   1.273282638131947E-02  1.068768806842135E-02  2.199269866343202E-05
2460527.500000000 = A.D. 2024-Aug-05 00:00:00.0000 TDB 
   6.797408497101495E-01 -7.475747201073333E-01  4.088529320488044E-04
   1.197473084618895E-02  1.119512763466167E-02 -3.251855641989448E-05
2460532.500000000 = A.D. 2024-Aug-10 00:00:00.0000 TDB 
   7.384815529690962E-01 -6.895526423409684E-01  1.818678476869778E-04
   1.152506852973438E-02  1.210168727078966E-02 -4.934372508434218E-05
2460537.500000000 = A.D. 2024-Aug-15 00:00:00.0000 TDB 
   7.945584234709128E-01 -6.257424418718557E-01  5.741561528054632E-06
   1.081703821008495E-02  1.348509932203440E-02 -1.314629610176662E-05
2460542.500000000 = A.D. 2024-Aug-20 00:00:00.0000 TDB 
   8.453654469371957E-01 -5.545590182997943E-01  9.136164505732035E-05
   9.359095279086663E-03  1.492573943174556E-02  4.478335228098359E-05
2460547.500000000 = A.D. 2024-Aug-25 00:00:00.0000 TDB 
   8.872727809211390E-01 -4.779046170045081E-01  3.490642914682198E-04
   7.417576975095680E-03  1.556644647344059E-02  4.421411640373495E-05
2460552.500000000 = A.D. 2024-Aug-30 00:00:00.0000 TDB 
   9.204383104083160E-01 -3.999967073108164E-01  4.381645600258958E-04
   5.965857412518375E-03  1.556410910962459E-02 -1.133262543678220E-05
2460557.500000000 = A.D. 2024-Sep-04 00:00:00.0000 TDB 
   9.478716640085099E-01 -3.219821458919775E-01  2.666502395620296E-04
   5.061995763889765E-03  1.571062386358515E-02 -4.995419869150992E-05
2460562.500000000 = A.D. 2024-Sep-09 00:00:00.0000 TDB 
   9.711207939826767E-01 -2.420833358238246E-01  2.862411775573322E-05
   4.197001364498034E-03  1.632495429143501E-02 -3.610736045224711E-05
2460567.500000000 = A.D. 2024-Sep-14 00:00:00.0000 TDB 
   9.890179321766107E-01 -1.582263396683768E-01 -2.134179683175694E-05
   2.842300467304630E-03  1.722651393801152E-02  1.999927540839127E-05
2460572.500000000 = A.D. 2024-Sep-19 00:00:00.0000 TDB 
   9.982693007507339E-01 -7.048993753685392E-02  1.986300418523106E-04
   7.722906550565883E-04  1.771590644182930E-02  5.675406518469833E-05
2460577.500000000 = A.D. 2024-Sep-24 00:00:00.0000 TDB 
   9.969638448481054E-01  1.723314451736866E-02  4.063552695011531E-04
  -1.179954575953502E-03  1.725693298604505E-02  1.634315418522324E-05
2460582.500000000 = A.D. 2024-Sep-29 00:00:00.0000 TDB 
   9.877345822298187E-01  1.017791023721951E-01  3.406243684627324E-04
  -2.410422419854252E-03  1.659705566155518E-02 -3.845207602878752E-05
2460587.500000000 = A.D. 2024-Oct-04 00:00:00.0000 TDB 
   9.734297775081268E-01  1.838736068588974E-01  9.731551438441500E-05
  -3.301568856518300E-03  1.632160877753815E-02 -4.955426100007992E-05
2460592.500000000 = A.D. 2024-Oct-09 00:00:00.0000 TDB 
   9.543589826196018E-01  2.657066741704434E-01 -6.610126470663921E-05
  -4.404113948889430E-03  1.645812135040199E-02 -8.799470249688261E-06
2460597.500000000 = A.D. 2024-Oct-14 00:00:00.0000 TDB 
   9.283321734207509E-01  3.484401144938787E-01  3.789387795691237E-05
  -6.122560861463442E-03  1.656769750969639E-02  4.725832649895637E-05
2460602.500000000 = A.D. 2024-Oct-19 00:00:00.0000 TDB 
   8.924703214985970E-01  4.299641820949746E-01  3.017494735197514E-04
  -8.190070700494845E-03  1.586295479331105E-02  4.344298861371665E-05
2460607.500000000 = A.D. 2024-Oct-24 00:00:00.0000 TDB 
   8.476427837705365E-01  5.059164650279536E-01  3.737217283371205E-04
  -9.592864327796408E-03  1.449649798445315E-02 -1.615686388867715E-05
2460612.500000000 = A.D. 2024-Oct-29 00:00:00.0000 TDB 
   7.976379032191093E-01  5.753438448673525E-01  1.864810115213761E-04
  -1.034751547423662E-02  1.334959082681787E-02 -5.059460870563561E-05
2460617.500000000 = A.D. 2024-Nov-03 00:00:00.0000 TDB 
   7.443093040369624E-01  6.402313745528960E-01 -4.080224045943152E-05
  -1.101611635734928E-02  1.268025543918920E-02 -3.148001058234012E-05
2460622.500000000 = A.D. 2024-Nov-08 00:00:00.0000 TDB 
   6.867588903392829E-01  7.025860049607793E-01 -6.551453318002998E-05
  -1.210366657103581E-02  1.225831460251906E-02  2.372507029670460E-05
2460627.500000000 = A.D. 2024-Nov-13 00:00:00.0000 TDB 
   6.223256691739278E-01  7.621214957264337E-01  1.566987413457928E-04
  -1.372424803375074E-02  1.141887219806977E-02  5.467143355916600E-05
2460632.500000000 = A.D. 2024-Nov-18 00:00:00.0000 TDB 
   5.499212052160913E-01  8.151945431113671E-01  3.494151155297441E-04
  -1.510113976799476E-02  9.695839051681599E-03  1.238574897184085E-05
2460637.500000000 = A.D. 2024-Nov-23 00:00:00.0000 TDB 
   4.728638117915471E-01  8.589008041960819E-01  2.658084233498298E-04
  -1.560050862660306E-02  7.844539090910835E-03 -4.023301910149411E-05
2460642.500000000 = A.D. 2024-Nov-28 00:00:00.0000 TDB 
   3.945817585635252E-01  8.944845719888114E-01  3.050666479228895E-05
  -1.569572207306084E-02  6.480412108711923E-03 -4.465082916032180E-05
2460647.500000000 = A.D. 2024-Dec-03 00:00:00.0000 TDB 
   3.156175812448970E-01  9.244974739511050E-01 -9.766428117855413E-05
  -1.596133032593940E-02  5.576138653793870E-03 -7.046781296732294E-07
2460652.500000000 = A.D. 2024-Dec-08 00:00:00.0000 TDB 
   2.340320954601429E-01  9.502109468959271E-01  3.319612311705607E-05
  -1.676166182024110E-02  4.639688485443003E-03  4.795404115849397E-05
2460657.500000000 = A.D. 2024-Dec-13 00:00:00.0000 TDB 
   1.476662197803216E-01  9.696513930144294E-01  2.783654111990559E-04
  -1.773396730848298E-02  2.989668878246450E-03  3.729102711404295E-05
2460662.500000000 = A.D. 2024-Dec-18 00:00:00.0000 TDB 
   5.800182117846953E-02  9.791652412461390E-01  3.207818391873967E-04
  -1.796661038534380E-02  8.102884641778674E-04 -2.114225806917119E-05
2460667.500000000 = A.D. 2024-Dec-23 00:00:00.0000 TDB 
  -3.074573720232301E-02  9.784159576095877E-01  1.238867365945237E-04
  -1.746464382090980E-02 -1.008257771318799E-03 -4.858047222899180E-05
2460672.500000000 = A.D. 2024-Dec-28 00:00:00.0000 TDB 
  -1.164837633703219E-01  9.700995105382144E-01 -7.387727596615422E-05
  -1.686046621060301E-02 -2.228126128043620E-03 -2.242822516982575E-05
